[{"OBJECT_NAME":"SKYKRAFT-1A","OBJECT_ID":"2023-001AX","EPOCH":"2026-03-09T17:03:19.828224","MEAN_MOTION":15.28083228,"ECCENTRICITY":0.00112767,"INCLINATION":97.3349,"RA_OF_ASC_NODE":127.629,"ARG_OF_PERICENTER":121.5092,"MEAN_ANOMALY":238.7251,"EPHEMERIS_TYPE":0,"CLASSIFICATION_TYPE":"U","NORAD_CAT_ID":55054,"ELEMENT_SET_NO":999,"REV_AT_EPOCH":17652,"BSTAR":0.0003006872,"MEAN_MOTION_DOT":8.177e-5,"MEAN_MOTION_DDOT":0},{"OBJECT_NAME":"STARLINK-30511","OBJECT_ID":"2023-151Q","EPOCH":"2026-03-09T22:00:01.999584","MEAN_MOTION":15.26755123,"ECCENTRICITY":0.00014061,"INCLINATION":42.9997,"RA_OF_ASC_NODE":349.2941,"ARG_OF_PERICENTER":258.9465,"MEAN_ANOMALY":307.5616,"EPHEMERIS_TYPE":0,"CLASSIFICATION_TYPE":"U","NORAD_CAT_ID":57978,"ELEMENT_SET_NO":999,"REV_AT_EPOCH":577,"BSTAR":-0.00023891008,"MEAN_MOTION_DOT":-6.665e-5,"MEAN_MOTION_DDOT":0}]
